[
    {
        "Altitude(m)": 556580.0905886882,
        "Argument of Periapsis(deg)": 0.026491964442854003,
        "Eccentricity": 0.0,
        "Inclination(deg)": 53.0,
        "Latitude(deg)": -12.026185182205278,
        "Longitude(deg)": 131.0028378345914,
        "Mean Anomaly(deg)": 194.91187147031033,
        "RAAN(deg)": 44.96057347411207,
        "Satellite Name": "Starlink Shell 1 207",
        "Satellite Number": 207,
        "Semi-Major Axis(m)": 6931778.249405717,
        "Time(s)": 760
    },
    {
        "Altitude(m)": 556708.2667221215,
        "Argument of Periapsis(deg)": 0.02684054292236524,
        "Eccentricity": 0.0,
        "Inclination(deg)": 53.0,
        "Latitude(deg)": -12.52286513959458,
        "Longitude(deg)": 131.35567709465127,
        "Mean Anomaly(deg)": 195.53870267386705,
        "RAAN(deg)": 44.9600547040346,
        "Satellite Name": "Starlink Shell 1 207",
        "Satellite Number": 207,
        "Semi-Major Axis(m)": 6931778.249405717,
        "Time(s)": 770
    },
    {
        "Altitude(m)": 556838.6308220709,
        "Argument of Periapsis(deg)": 0.027189121401876473,
        "Eccentricity": 0.0,
        "Inclination(deg)": 53.0,
        "Latitude(deg)": -13.018933782418824,
        "Longitude(deg)": 131.7100141109221,
        "Mean Anomaly(deg)": 196.16553387742377,
        "RAAN(deg)": 44.95953593395713,
        "Satellite Name": "Starlink Shell 1 207",
        "Satellite Number": 207,
        "Semi-Major Axis(m)": 6931778.249405717,
        "Time(s)": 780
    },
    {
        "Altitude(m)": 556971.1426026799,
        "Argument of Periapsis(deg)": 0.02753769988138771,
        "Eccentricity": 0.0,
        "Inclination(deg)": 53.0,
        "Latitude(deg)": -13.514364333333713,
        "Longitude(deg)": 132.06591505280278,
        "Mean Anomaly(deg)": 196.79236508098052,
        "RAAN(deg)": 44.95901716387965,
        "Satellite Name": "Starlink Shell 1 207",
        "Satellite Number": 207,
        "Semi-Major Axis(m)": 6931778.249405717,
        "Time(s)": 790
    },
    {
        "Altitude(m)": 557105.7606753627,
        "Argument of Periapsis(deg)": 0.02788627836089895,
        "Eccentricity": 0.0,
        "Inclination(deg)": 53.0,
        "Latitude(deg)": -14.009129682962405,
        "Longitude(deg)": 132.42344625056262,
        "Mean Anomaly(deg)": 197.41919628453718,
        "RAAN(deg)": 44.95849839380218,
        "Satellite Name": "Starlink Shell 1 207",
        "Satellite Number": 207,
        "Semi-Major Axis(m)": 6931778.249405717,
        "Time(s)": 800
    },
    {
        "Altitude(m)": 557242.4425666614,
        "Argument of Periapsis(deg)": 0.02823485684041019,
        "Eccentricity": 0.0,
        "Inclination(deg)": 53.0,
        "Latitude(deg)": -14.503202374246607,
        "Longitude(deg)": 132.78267472632282,
        "Mean Anomaly(deg)": 198.04602748809393,
        "RAAN(deg)": 44.95797962372471,
        "Satellite Name": "Starlink Shell 1 207",
        "Satellite Number": 207,
        "Semi-Major Axis(m)": 6931778.249405717,
        "Time(s)": 810
    },
    {
        "Altitude(m)": 557381.1447366513,
        "Argument of Periapsis(deg)": 0.028583435319921423,
        "Eccentricity": 0.0,
        "Inclination(deg)": 53.0,
        "Latitude(deg)": -14.996554586481981,
        "Longitude(deg)": 133.14366872505119,
        "Mean Anomaly(deg)": 198.67285869165062,
        "RAAN(deg)": 44.95746085364723,
        "Satellite Name": "Starlink Shell 1 207",
        "Satellite Number": 207,
        "Semi-Major Axis(m)": 6931778.249405717,
        "Time(s)": 820
    },
    {
        "Altitude(m)": 557521.8225978772,
        "Argument of Periapsis(deg)": 0.028932013799432665,
        "Eccentricity": 0.0,
        "Inclination(deg)": 53.0,
        "Latitude(deg)": -15.48915811902484,
        "Longitude(deg)": 133.50649673268254,
        "Mean Anomaly(deg)": 199.29968989520734,
        "RAAN(deg)": 44.95694208356976,
        "Satellite Name": "Starlink Shell 1 207",
        "Satellite Number": 207,
        "Semi-Major Axis(m)": 6931778.249405717,
        "Time(s)": 830
    },
    {
        "Altitude(m)": 557664.4305348047,
        "Argument of Periapsis(deg)": 0.029280592278943897,
        "Eccentricity": 0.0,
        "Inclination(deg)": 53.0,
        "Latitude(deg)": -15.980984374662059,
        "Longitude(deg)": 133.87122800709065,
        "Mean Anomaly(deg)": 199.92652109876406,
        "RAAN(deg)": 44.95642331349229,
        "Satellite Name": "Starlink Shell 1 207",
        "Satellite Number": 207,
        "Semi-Major Axis(m)": 6931778.249405717,
        "Time(s)": 840
    },
    {
        "Altitude(m)": 557808.9219237635,
        "Argument of Periapsis(deg)": 0.029629170758455132,
        "Eccentricity": 0.0,
        "Inclination(deg)": 53.0,
        "Latitude(deg)": -16.472004342628296,
        "Longitude(deg)": 134.237933109015,
        "Mean Anomaly(deg)": 200.5533523023208,
        "RAAN(deg)": 44.95590454341481,
        "Satellite Name": "Starlink Shell 1 207",
        "Satellite Number": 207,
        "Semi-Major Axis(m)": 6931778.249405717,
        "Time(s)": 850
    },
    {
        "Altitude(m)": 557955.2491533796,
        "Argument of Periapsis(deg)": 0.02997774923796637,
        "Eccentricity": 0.0,
        "Inclination(deg)": 53.0,
        "Latitude(deg)": -16.96218858125748,
        "Longitude(deg)": 134.60668275194888,
        "Mean Anomaly(deg)": 201.18018350587752,
        "RAAN(deg)": 44.95538577333734,
        "Satellite Name": "Starlink Shell 1 207",
        "Satellite Number": 207,
        "Semi-Major Axis(m)": 6931778.249405717,
        "Time(s)": 860
    },
    {
        "Altitude(m)": 558103.3636455317,
        "Argument of Periapsis(deg)": 0.030326327717477602,
        "Eccentricity": 0.0,
        "Inclination(deg)": 53.0,
        "Latitude(deg)": -17.451507200262032,
        "Longitude(deg)": 134.977549173385,
        "Mean Anomaly(deg)": 201.80701470943413,
        "RAAN(deg)": 44.954867003259864,
        "Satellite Name": "Starlink Shell 1 207",
        "Satellite Number": 207,
        "Semi-Major Axis(m)": 6931778.249405717,
        "Time(s)": 870
    },
    {
        "Altitude(m)": 558253.2158766987,
        "Argument of Periapsis(deg)": 0.030674906196988847,
        "Eccentricity": 0.0,
        "Inclination(deg)": 53.0,
        "Latitude(deg)": -17.9399298426203,
        "Longitude(deg)": 135.3506049844763,
        "Mean Anomaly(deg)": 202.43384591299093,
        "RAAN(deg)": 44.954348233182394,
        "Satellite Name": "Starlink Shell 1 207",
        "Satellite Number": 207,
        "Semi-Major Axis(m)": 6931778.249405717,
        "Time(s)": 880
    },
    {
        "Altitude(m)": 558404.7553998636,
        "Argument of Periapsis(deg)": 0.031023484676500086,
        "Eccentricity": 0.0,
        "Inclination(deg)": 53.0,
        "Latitude(deg)": -18.42742566606558,
        "Longitude(deg)": 135.72592370050222,
        "Mean Anomaly(deg)": 203.06067711654765,
        "RAAN(deg)": 44.953829463104924,
        "Satellite Name": "Starlink Shell 1 207",
        "Satellite Number": 207,
        "Semi-Major Axis(m)": 6931778.249405717,
        "Time(s)": 890
    },
    {
        "Altitude(m)": 558557.9308667796,
        "Argument of Periapsis(deg)": 0.03137206315601132,
        "Eccentricity": 0.0,
        "Inclination(deg)": 53.0,
        "Latitude(deg)": -18.913963324165053,
        "Longitude(deg)": 136.1035802711317,
        "Mean Anomaly(deg)": 203.6875083201043,
        "RAAN(deg)": 44.95331069302745,
        "Satellite Name": "Starlink Shell 1 207",
        "Satellite Number": 207,
        "Semi-Major Axis(m)": 6931778.249405717,
        "Time(s)": 900
    },
    {
        "Altitude(m)": 558712.6900507393,
        "Argument of Periapsis(deg)": 0.03172064163552255,
        "Eccentricity": 0.0,
        "Inclination(deg)": 53.0,
        "Latitude(deg)": -19.399510946973074,
        "Longitude(deg)": 136.4836500975664,
        "Mean Anomaly(deg)": 204.3143395236611,
        "RAAN(deg)": 44.95279192294998,
        "Satellite Name": "Starlink Shell 1 207",
        "Satellite Number": 207,
        "Semi-Major Axis(m)": 6931778.249405717,
        "Time(s)": 910
    },
    {
        "Altitude(m)": 558868.9798697176,
        "Argument of Periapsis(deg)": 0.0320692201150338,
        "Eccentricity": 0.0,
        "Inclination(deg)": 53.0,
        "Latitude(deg)": -19.884036121251917,
        "Longitude(deg)": 136.86620956226167,
        "Mean Anomaly(deg)": 204.94117072721772,
        "RAAN(deg)": 44.95227315287251,
        "Satellite Name": "Starlink Shell 1 207",
        "Satellite Number": 207,
        "Semi-Major Axis(m)": 6931778.249405717,
        "Time(s)": 920
    },
    {
        "Altitude(m)": 559026.7464099628,
        "Argument of Periapsis(deg)": 0.032417798594545036,
        "Eccentricity": 0.0,
        "Inclination(deg)": 53.0,
        "Latitude(deg)": -20.367505870248383,
        "Longitude(deg)": 137.25133655830123,
        "Mean Anomaly(deg)": 205.56800193077444,
        "RAAN(deg)": 44.95175438279502,
        "Satellite Name": "Starlink Shell 1 207",
        "Satellite Number": 207,
        "Semi-Major Axis(m)": 6931778.249405717,
        "Time(s)": 930
    },
    {
        "Altitude(m)": 559185.9349499565,
        "Argument of Periapsis(deg)": 0.03276637707405627,
        "Eccentricity": 0.0,
        "Inclination(deg)": 53.0,
        "Latitude(deg)": -20.84988663301327,
        "Longitude(deg)": 137.63910950549445,
        "Mean Anomaly(deg)": 206.19483313433128,
        "RAAN(deg)": 44.951235612717554,
        "Satellite Name": "Starlink Shell 1 207",
        "Satellite Number": 207,
        "Semi-Major Axis(m)": 6931778.249405717,
        "Time(s)": 940
    }
]